start=new Date('2022-01-08T00:00:00.000Z').valueOf();
sats=[{"SEMIMAJOR_AXIS":"6925.339","BSTAR":"0.00007584300000","NORAD_CAT_ID":"47750","TIME_SYSTEM":"UTC","MEAN_MOTION_DDOT":"0.0000000000000","RCS_SIZE":"LARGE","REV_AT_EPOCH":"4848","MEAN_ANOMALY":"281.8408","RA_OF_ASC_NODE":"193.7084","ELEMENT_SET_NO":"999","COUNTRY_CODE":"US","ECCENTRICITY":"0.00020630","REF_FRAME":"TEME","OBJECT_NAME":"STARLINK-2164","CLASSIFICATION_TYPE":"U","APOAPSIS":"548.633","EPOCH":"2022-01-07T18:55:22.429056","LAUNCH_DATE":"2021-03-04","PERIOD":"95.592","CENTER_NAME":"EARTH","MEAN_MOTION_DOT":"0.00000848","TLE_LINE2":"2 47750  53.0553 193.7084 0002063  78.2812 281.8408 15.06403057 48483","PERIAPSIS":"545.775","ARG_OF_PERICENTER":"78.2812","OBJECT_TYPE":"PAYLOAD","DECAY_DATE":null,"MEAN_ELEMENT_THEORY":"SGP4","MEAN_MOTION":"15.06403057","EPHEMERIS_TYPE":"0","SITE":"AFETR","OBJECT_ID":"2021-017AE","INCLINATION":"53.0553","TLE_LINE1":"1 47750U 21017AE  22007.78845404  .00000848  00000-0  75843-4 0  9996","FILE":"3266804","GP_ID":"193424522"},{"OBJECT_NAME":"STARLINK-2168","REF_FRAME":"TEME","COUNTRY_CODE":"US","ECCENTRICITY":"0.00022030","PERIOD":"95.592","LAUNCH_DATE":"2021-03-04","CENTER_NAME":"EARTH","APOAPSIS":"548.743","CLASSIFICATION_TYPE":"U","EPOCH":"2022-01-07T18:03:38.153952","SEMIMAJOR_AXIS":"6925.353","BSTAR":"0.00006583100000","NORAD_CAT_ID":"47751","MEAN_MOTION_DDOT":"0.0000000000000","TIME_SYSTEM":"UTC","ELEMENT_SET_NO":"999","RCS_SIZE":"LARGE","REV_AT_EPOCH":"4862","MEAN_ANOMALY":"282.5518","RA_OF_ASC_NODE":"183.8480","EPHEMERIS_TYPE":"0","SITE":"AFETR","OBJECT_ID":"2021-017AF","MEAN_ELEMENT_THEORY":"SGP4","MEAN_MOTION":"15.06398680","TLE_LINE1":"1 47751U 21017AF  22007.75252493  .00000699  00000-0  65831-4 0  9994","FILE":"3266804","GP_ID":"193424772","INCLINATION":"53.0534","MEAN_MOTION_DOT":"0.00000699","TLE_LINE2":"2 47751  53.0534 183.8480 0002203  77.5717 282.5518 15.06398680 48626","PERIAPSIS":"545.692","OBJECT_TYPE":"PAYLOAD","DECAY_DATE":null,"ARG_OF_PERICENTER":"77.5717"},{"MEAN_MOTION_DOT":"0.00000599","TLE_LINE2":"2 47752  53.0543 198.7234 0002246  70.8846 289.2386 15.06403926 48464","PERIAPSIS":"545.646","OBJECT_TYPE":"PAYLOAD","DECAY_DATE":null,"ARG_OF_PERICENTER":"70.8846","SITE":"AFETR","OBJECT_ID":"2021-017AG","EPHEMERIS_TYPE":"0","MEAN_MOTION":"15.06403926","MEAN_ELEMENT_THEORY":"SGP4","FILE":"3266804","GP_ID":"193426020","TLE_LINE1":"1 47752U 21017AG  22007.78614230  .00000599  00000-0  59102-4 0  9992","INCLINATION":"53.0543","MEAN_MOTION_DDOT":"0.0000000000000","TIME_SYSTEM":"UTC","BSTAR":"0.00005910200000","SEMIMAJOR_AXIS":"6925.337","NORAD_CAT_ID":"47752","ELEMENT_SET_NO":"999","REV_AT_EPOCH":"4846","RA_OF_ASC_NODE":"198.7234","MEAN_ANOMALY":"289.2386","RCS_SIZE":"MEDIUM","OBJECT_NAME":"STARLINK-2169","REF_FRAME":"TEME","COUNTRY_CODE":"US","ECCENTRICITY":"0.00022460","CENTER_NAME":"EARTH","PERIOD":"95.592","LAUNCH_DATE":"2021-03-04","EPOCH":"2022-01-07T18:52:02.694720","CLASSIFICATION_TYPE":"U","APOAPSIS":"548.757"},{"TIME_SYSTEM":"UTC","MEAN_MOTION_DDOT":"0.0000000000000","BSTAR":"0.00004972800000","SEMIMAJOR_AXIS":"6925.381","NORAD_CAT_ID":"47753","ELEMENT_SET_NO":"999","REV_AT_EPOCH":"4840","MEAN_ANOMALY":"287.6230","RA_OF_ASC_NODE":"203.2174","RCS_SIZE":"LARGE","OBJECT_NAME":"STARLINK-2170","ECCENTRICITY":"0.00021240","COUNTRY_CODE":"US","REF_FRAME":"TEME","CENTER_NAME":"EARTH","PERIOD":"95.593","LAUNCH_DATE":"2021-03-04","EPOCH":"2022-01-07T21:27:59.010336","CLASSIFICATION_TYPE":"U","APOAPSIS":"548.717","MEAN_MOTION_DOT":"0.00000459","TLE_LINE2":"2 47753  53.0546 203.2174 0002124  72.4991 287.6230 15.06389446 48401","PERIAPSIS":"545.775","OBJECT_TYPE":"PAYLOAD","DECAY_DATE":null,"ARG_OF_PERICENTER":"72.4991","SITE":"AFETR","OBJECT_ID":"2021-017AH","EPHEMERIS_TYPE":"0","MEAN_MOTION":"15.06389446","MEAN_ELEMENT_THEORY":"SGP4","FILE":"3266804","GP_ID":"193425760","TLE_LINE1":"1 47753U 21017AH  22007.89443299  .00000459  00000-0  49728-4 0  9998","INCLINATION":"53.0546"},{"OBJECT_NAME":"STARLINK-2171","COUNTRY_CODE":"US","ECCENTRICITY":"0.00023280","REF_FRAME":"TEME","CENTER_NAME":"EARTH","PERIOD":"95.592","LAUNCH_DATE":"2021-03-04","EPOCH":"2022-01-07T19:09:57.345696","APOAPSIS":"548.809","CLASSIFICATION_TYPE":"U","MEAN_MOTION_DDOT":"0.0000000000000","TIME_SYSTEM":"UTC","SEMIMAJOR_AXIS":"6925.332","BSTAR":"0.00008212400000","NORAD_CAT_ID":"47754","ELEMENT_SET_NO":"999","REV_AT_EPOCH":"4835","MEAN_ANOMALY":"292.0486","RA_OF_ASC_NODE":"203.6560","RCS_SIZE":"LARGE","SITE":"AFETR","OBJECT_ID":"2021-017AJ","EPHEMERIS_TYPE":"0","MEAN_MOTION":"15.06405553","MEAN_ELEMENT_THEORY":"SGP4","FILE":"3266804","GP_ID":"193425022","TLE_LINE1":"1 47754U 21017AJ  22007.79858039  .00000942  00000-0  82124-4 0  9994","INCLINATION":"53.0547","MEAN_MOTION_DOT":"0.00000942","PERIAPSIS":"545.584","TLE_LINE2":"2 47754  53.0547 203.6560 0002328  68.0750 292.0486 15.06405553 48351","OBJECT_TYPE":"PAYLOAD","DECAY_DATE":null,"ARG_OF_PERICENTER":"68.0750"},{"CENTER_NAME":"EARTH","LAUNCH_DATE":"2021-03-04","PERIOD":"93.847","EPOCH":"2022-01-07T21:49:10.891776","CLASSIFICATION_TYPE":"U","APOAPSIS":"463.406","OBJECT_NAME":"STARLINK-2172","ECCENTRICITY":"0.00011010","COUNTRY_CODE":"US","REF_FRAME":"TEME","ELEMENT_SET_NO":"999","RA_OF_ASC_NODE":"194.5614","MEAN_ANOMALY":"295.3923","REV_AT_EPOCH":"4848","RCS_SIZE":"LARGE","MEAN_MOTION_DDOT":"0.0000000000000","TIME_SYSTEM":"UTC","NORAD_CAT_ID":"47755","SEMIMAJOR_AXIS":"6840.788","BSTAR":"0.00823110000000","GP_ID":"193425272","FILE":"3266804","TLE_LINE1":"1 47755U 21017AK  22007.90915384  .00288860  00000-0  82311-2 0  9998","INCLINATION":"53.0478","OBJECT_ID":"2021-017AK","SITE":"AFETR","EPHEMERIS_TYPE":"0","MEAN_MOTION":"15.34417575","MEAN_ELEMENT_THEORY":"SGP4","DECAY_DATE":null,"OBJECT_TYPE":"PAYLOAD","ARG_OF_PERICENTER":"64.7192","TLE_LINE2":"2 47755  53.0478 194.5614 0001101  64.7192 295.3923 15.34417575 48488","PERIAPSIS":"461.900","MEAN_MOTION_DOT":"0.00288860"},{"OBJECT_NAME":"STARLINK-2174","COUNTRY_CODE":"US","REF_FRAME":"TEME","ECCENTRICITY":"0.00021400","PERIOD":"95.592","LAUNCH_DATE":"2021-03-04","CENTER_NAME":"EARTH","CLASSIFICATION_TYPE":"U","APOAPSIS":"548.702","EPOCH":"2022-01-07T19:04:39.185472","NORAD_CAT_ID":"47756","SEMIMAJOR_AXIS":"6925.355","BSTAR":"0.00004977300000","TIME_SYSTEM":"UTC","MEAN_MOTION_DDOT":"0.0000000000000","ELEMENT_SET_NO":"999","RCS_SIZE":"LARGE","MEAN_ANOMALY":"280.0517","RA_OF_ASC_NODE":"203.6790","REV_AT_EPOCH":"4839","EPHEMERIS_TYPE":"0","OBJECT_ID":"2021-017AL","SITE":"AFETR","MEAN_ELEMENT_THEORY":"SGP4","MEAN_MOTION":"15.06397922","TLE_LINE1":"1 47756U 21017AL  22007.79489798  .00000460  00000-0  49773-4 0  9996","GP_ID":"193425521","FILE":"3266804","INCLINATION":"53.0547","TLE_LINE2":"2 47756  53.0547 203.6790 0002140  80.0713 280.0517 15.06397922 48399","PERIAPSIS":"545.738","MEAN_MOTION_DOT":"0.00000460","DECAY_DATE":null,"OBJECT_TYPE":"PAYLOAD","ARG_OF_PERICENTER":"80.0713"},{"PERIOD":"95.593","LAUNCH_DATE":"2021-03-04","CENTER_NAME":"EARTH","APOAPSIS":"548.818","CLASSIFICATION_TYPE":"U","EPOCH":"2022-01-07T18:43:26.496192","OBJECT_NAME":"STARLINK-2175","COUNTRY_CODE":"US","REF_FRAME":"TEME","ECCENTRICITY":"0.00022870","ELEMENT_SET_NO":"999","RCS_SIZE":"MEDIUM","REV_AT_EPOCH":"4833","RA_OF_ASC_NODE":"203.7465","MEAN_ANOMALY":"298.9549","SEMIMAJOR_AXIS":"6925.369","BSTAR":"-0.00007820400000","NORAD_CAT_ID":"47757","TIME_SYSTEM":"UTC","MEAN_MOTION_DDOT":"0.0000000000000","TLE_LINE1":"1 47757U 21017AM  22007.78016778 -.00001446  00000-0 -78204-4 0  9998","FILE":"3266804","GP_ID":"193426260","INCLINATION":"53.0557","EPHEMERIS_TYPE":"0","SITE":"AFETR","OBJECT_ID":"2021-017AM","MEAN_ELEMENT_THEORY":"SGP4","MEAN_MOTION":"15.06393244","OBJECT_TYPE":"PAYLOAD","DECAY_DATE":null,"ARG_OF_PERICENTER":"61.1670","MEAN_MOTION_DOT":"-0.00001446","PERIAPSIS":"545.650","TLE_LINE2":"2 47757  53.0557 203.7465 0002287  61.1670 298.9549 15.06393244 48335"},{"EPOCH":"2022-01-07T21:01:35.788224","CLASSIFICATION_TYPE":"U","APOAPSIS":"483.875","CENTER_NAME":"EARTH","LAUNCH_DATE":"2021-03-04","PERIOD":"94.261","COUNTRY_CODE":"US","REF_FRAME":"TEME","ECCENTRICITY":"0.00016270","OBJECT_NAME":"STARLINK-2176","RA_OF_ASC_NODE":"200.7883","MEAN_ANOMALY":"288.1946","REV_AT_EPOCH":"4844","RCS_SIZE":"LARGE","ELEMENT_SET_NO":"999","TIME_SYSTEM":"UTC","MEAN_MOTION_DDOT":"0.0000000000000","NORAD_CAT_ID":"47758","SEMIMAJOR_AXIS":"6860.893","BSTAR":"0.00571920000000","INCLINATION":"53.0583","GP_ID":"193424523","FILE":"3266804","TLE_LINE1":"1 47758U 21017AN  22007.87610866  .00159854  00000-0  57192-2 0  9993","MEAN_MOTION":"15.27677777","MEAN_ELEMENT_THEORY":"SGP4","OBJECT_ID":"2021-017AN","SITE":"AFETR","EPHEMERIS_TYPE":"0","ARG_OF_PERICENTER":"71.9230","DECAY_DATE":null,"OBJECT_TYPE":"PAYLOAD","TLE_LINE2":"2 47758  53.0583 200.7883 0001627  71.9230 288.1946 15.27677777 48447","PERIAPSIS":"481.642","MEAN_MOTION_DOT":"0.00159854"},{"OBJECT_NAME":"STARLINK-2177","COUNTRY_CODE":"US","ECCENTRICITY":"0.00022470","REF_FRAME":"TEME","CENTER_NAME":"EARTH","PERIOD":"91.645","LAUNCH_DATE":"2021-03-04","EPOCH":"2022-01-07T20:37:02.059104","CLASSIFICATION_TYPE":"U","APOAPSIS":"356.728","MEAN_MOTION_DDOT":"0.0000000000000","TIME_SYSTEM":"UTC","SEMIMAJOR_AXIS":"6733.350","BSTAR":"0.00157020000000","NORAD_CAT_ID":"47759","ELEMENT_SET_NO":"999","REV_AT_EPOCH":"4902","MEAN_ANOMALY":"340.7927","RA_OF_ASC_NODE":"158.4754","RCS_SIZE":"LARGE","SITE":"AFETR","OBJECT_ID":"2021-017AP","EPHEMERIS_TYPE":"0","MEAN_MOTION":"15.71288509","MEAN_ELEMENT_THEORY":"SGP4","FILE":"3266804","GP_ID":"193424773","TLE_LINE1":"1 47759U 21017AP  22007.85905161  .00207766  00000-0  15702-2 0  9994","INCLINATION":"53.0525","MEAN_MOTION_DOT":"0.00207766","PERIAPSIS":"353.702","TLE_LINE2":"2 47759  53.0525 158.4754 0002247  19.3175 340.7927 15.71288509 49022","OBJECT_TYPE":"PAYLOAD","DECAY_DATE":null,"ARG_OF_PERICENTER":"19.3175"}];
